{
  "type": "FeatureCollection",
  "features": [
    {
      "type": "Feature",
      "properties": {
        "norad_id": 37836,
        "name": "EUTELSAT 16A",
        "group": "eutelsat",
        "lat": 0.05900667946722876,
        "lon": 30.3922302726902,
        "alt_km": 35798.54133012082,
        "timestamp": "2025-12-21T18:54:58.164632+00:00",
        "meta_object_name": "EUTELSAT 16A",
        "meta_object_id": "2011-057A",
        "meta_epoch": "2025-12-21T08:08:13.456896",
        "meta_mean_motion": 1.00269622,
        "meta_eccentricity": 0.00058596,
        "meta_inclination": 0.0588,
        "meta_ra_of_asc_node": 339.8459,
        "meta_arg_of_pericenter": 291.8691,
        "meta_mean_anomaly": 316.5007,
        "meta_ephemeris_type": 0,
        "meta_classification_type": "U",
        "meta_norad_cat_id": 37836,
        "meta_element_set_no": 999,
        "meta_rev_at_epoch": 554,
        "meta_bstar": 0,
        "meta_mean_motion_dot": 1.27e-06,
        "meta_mean_motion_ddot": 0,
        "tle_line1": "1 37836U 11057A   25355.33904464  .00000127  00000+0  00000+0 0  9992",
        "tle_line2": "2 37836   0.0588 339.8459 0005859 291.8691 316.5007  1.00269622  5548"
      },
      "geometry": {
        "type": "Point",
        "coordinates": [
          30.3922302726902,
          0.05900667946722876
        ]
      }
    },
    {
      "type": "Feature",
      "properties": {
        "norad_id": 38992,
        "name": "EUTELSAT 21B",
        "group": "eutelsat",
        "lat": 0.07062471040758223,
        "lon": 35.96022053036704,
        "alt_km": 35793.82293258027,
        "timestamp": "2025-12-21T18:54:58.164644+00:00",
        "meta_object_name": "EUTELSAT 21B",
        "meta_object_id": "2012-062B",
        "meta_epoch": "2025-12-21T13:18:02.162016",
        "meta_mean_motion": 1.00269534,
        "meta_eccentricity": 0.00032667,
        "meta_inclination": 0.068,
        "meta_ra_of_asc_node": 342.0507,
        "meta_arg_of_pericenter": 292.8574,
        "meta_mean_anomaly": 36.5662,
        "meta_ephemeris_type": 0,
        "meta_classification_type": "U",
        "meta_norad_cat_id": 38992,
        "meta_element_set_no": 999,
        "meta_rev_at_epoch": 4804,
        "meta_bstar": 0,
        "meta_mean_motion_dot": 1.52e-06,
        "meta_mean_motion_ddot": 0,
        "tle_line1": "1 38992U 12062B   25355.55419169  .00000152  00000+0  00000+0 0  9998",
        "tle_line2": "2 38992   0.0680 342.0507 0003266 292.8574  36.5662  1.00269534 48046"
      },
      "geometry": {
        "type": "Point",
        "coordinates": [
          35.96022053036704,
          0.07062471040758223
        ]
      }
    },
    {
      "type": "Feature",
      "properties": {
        "norad_id": 39020,
        "name": "EUTELSAT 70B",
        "group": "eutelsat",
        "lat": 0.0866821289947675,
        "lon": 84.81744315770369,
        "alt_km": 35803.86397527426,
        "timestamp": "2025-12-21T18:54:58.164656+00:00",
        "meta_object_name": "EUTELSAT 70B",
        "meta_object_id": "2012-069A",
        "meta_epoch": "2025-12-21T13:32:00.822624",
        "meta_mean_motion": 1.00271554,
        "meta_eccentricity": 0.00042498,
        "meta_inclination": 0.0617,
        "meta_ra_of_asc_node": 7.2372,
        "meta_arg_of_pericenter": 247.5681,
        "meta_mean_anomaly": 109.0688,
        "meta_ephemeris_type": 0,
        "meta_classification_type": "U",
        "meta_norad_cat_id": 39020,
        "meta_element_set_no": 999,
        "meta_rev_at_epoch": 4772,
        "meta_bstar": 0,
        "meta_mean_motion_dot": -2.1e-07,
        "meta_mean_motion_ddot": 0,
        "tle_line1": "1 39020U 12069A   25355.56389841 -.00000021  00000+0  00000+0 0  9998",
        "tle_line2": "2 39020   0.0617   7.2372 0004249 247.5681 109.0688  1.00271554 47720"
      },
      "geometry": {
        "type": "Point",
        "coordinates": [
          84.81744315770369,
          0.0866821289947675
        ]
      }
    },
    {
      "type": "Feature",
      "properties": {
        "norad_id": 39122,
        "name": "EUTELSAT 117 WEST A",
        "group": "eutelsat",
        "lat": -0.039464360031782796,
        "lon": -102.45719786044813,
        "alt_km": 35775.82673615274,
        "timestamp": "2025-12-21T18:54:58.164668+00:00",
        "meta_object_name": "EUTELSAT 117 WEST A",
        "meta_object_id": "2013-012A",
        "meta_epoch": "2025-12-21T12:40:26.681376",
        "meta_mean_motion": 1.00270494,
        "meta_eccentricity": 0.00026032,
        "meta_inclination": 0.0278,
        "meta_ra_of_asc_node": 305.7819,
        "meta_arg_of_pericenter": 327.6163,
        "meta_mean_anomaly": 250.2746,
        "meta_ephemeris_type": 0,
        "meta_classification_type": "U",
        "meta_norad_cat_id": 39122,
        "meta_element_set_no": 999,
        "meta_rev_at_epoch": 4665,
        "meta_bstar": 0,
        "meta_mean_motion_dot": 1e-07,
        "meta_mean_motion_ddot": 0,
        "tle_line1": "1 39122U 13012A   25355.52808659  .00000010  00000+0  00000+0 0  9996",
        "tle_line2": "2 39122   0.0278 305.7819 0002603 327.6163 250.2746  1.00270494 46652"
      },
      "geometry": {
        "type": "Point",
        "coordinates": [
          -102.45719786044813,
          -0.039464360031782796
        ]
      }
    },
    {
      "type": "Feature",
      "properties": {
        "norad_id": 39163,
        "name": "EUTELSAT 7B",
        "group": "eutelsat",
        "lat": 0.030864331961097592,
        "lon": 21.374266839974286,
        "alt_km": 35776.86693676394,
        "timestamp": "2025-12-21T18:54:58.164680+00:00",
        "meta_object_name": "EUTELSAT 7B",
        "meta_object_id": "2013-022A",
        "meta_epoch": "2025-12-21T13:13:55.057152",
        "meta_mean_motion": 1.00271027,
        "meta_eccentricity": 0.00043882,
        "meta_inclination": 0.0649,
        "meta_ra_of_asc_node": 1.5578,
        "meta_arg_of_pericenter": 320.6858,
        "meta_mean_anomaly": 333.5998,
        "meta_ephemeris_type": 0,
        "meta_classification_type": "U",
        "meta_norad_cat_id": 39163,
        "meta_element_set_no": 999,
        "meta_rev_at_epoch": 4616,
        "meta_bstar": 0,
        "meta_mean_motion_dot": 7e-07,
        "meta_mean_motion_ddot": 0,
        "tle_line1": "1 39163U 13022A   25355.55133168  .00000070  00000+0  00000+0 0  9997",
        "tle_line2": "2 39163   0.0649   1.5578 0004388 320.6858 333.5998  1.00271027 46161"
      },
      "geometry": {
        "type": "Point",
        "coordinates": [
          21.374266839974286,
          0.030864331961097592
        ]
      }
    },
    {
      "type": "Feature",
      "properties": {
        "norad_id": 39612,
        "name": "EXPRESS-AT1",
        "group": "eutelsat",
        "lat": 0.03455580687930001,
        "lon": 70.3292179044236,
        "alt_km": 35784.73709281065,
        "timestamp": "2025-12-21T18:54:58.164692+00:00",
        "meta_object_name": "EXPRESS-AT1",
        "meta_object_id": "2014-010A",
        "meta_epoch": "2025-12-21T13:27:53.717760",
        "meta_mean_motion": 1.00272689,
        "meta_eccentricity": 8.523e-05,
        "meta_inclination": 0.0197,
        "meta_ra_of_asc_node": 308.1521,
        "meta_arg_of_pericenter": 195.1273,
        "meta_mean_anomaly": 205.0741,
        "meta_ephemeris_type": 0,
        "meta_classification_type": "U",
        "meta_norad_cat_id": 39612,
        "meta_element_set_no": 999,
        "meta_rev_at_epoch": 4303,
        "meta_bstar": 0,
        "meta_mean_motion_dot": 1.01e-06,
        "meta_mean_motion_ddot": 0,
        "tle_line1": "1 39612U 14010A   25355.56103840  .00000101  00000+0  00000+0 0  9994",
        "tle_line2": "2 39612   0.0197 308.1521 0000852 195.1273 205.0741  1.00272689 43037"
      },
      "geometry": {
        "type": "Point",
        "coordinates": [
          70.3292179044236,
          0.03455580687930001
        ]
      }
    },
    {
      "type": "Feature",
      "properties": {
        "norad_id": 39613,
        "name": "EXPRESS-AT2",
        "group": "eutelsat",
        "lat": 0.004908933836147609,
        "lon": 154.18161176326277,
        "alt_km": 35789.84132304379,
        "timestamp": "2025-12-21T18:54:58.164705+00:00",
        "meta_object_name": "EXPRESS-AT2",
        "meta_object_id": "2014-010B",
        "meta_epoch": "2025-12-21T03:35:19.372992",
        "meta_mean_motion": 1.00270951,
        "meta_eccentricity": 0.00010602,
        "meta_inclination": 0.019,
        "meta_ra_of_asc_node": 327.4725,
        "meta_arg_of_pericenter": 327.2965,
        "meta_mean_anomaly": 348.8895,
        "meta_ephemeris_type": 0,
        "meta_classification_type": "U",
        "meta_norad_cat_id": 39613,
        "meta_element_set_no": 999,
        "meta_rev_at_epoch": 4271,
        "meta_bstar": 0,
        "meta_mean_motion_dot": -2.58e-06,
        "meta_mean_motion_ddot": 0,
        "tle_line1": "1 39613U 14010B   25355.14952978 -.00000258  00000+0  00000+0 0  9997",
        "tle_line2": "2 39613   0.0190 327.4725 0001060 327.2965 348.8895  1.00270951 42719"
      },
      "geometry": {
        "type": "Point",
        "coordinates": [
          154.18161176326277,
          0.004908933836147609
        ]
      }
    }
  ]
}